STARLINK-36390          
1 67886U 26035H   26062.50001156 -.00908581  27796-3 -16846-2 0  9999
2 67886  97.2777 354.3521 0001151 104.1773 239.0553 16.01138097  2814
STARLINK-36368          
1 67887U 26035J   26062.50001156 -.00920916  28538-3 -16962-2 0  9990
2 67887  97.2774 354.3534 0001271 117.0223 229.7449 16.01254042  2765
STARLINK-36801          
1 67888U 26035K   26062.50001156 -.00968920  31408-3 -17712-2 0  9992
2 67888  97.2773 354.3549 0001129  77.9704 272.1757 16.01393071  2761
STARLINK-36372          
1 67889U 26035L   26062.50001156 -.01033520  35490-3 -18654-2 0  9994
2 67889  97.2768 354.3576 0001138  80.5202 276.1261 16.01623184  2764
STARLINK-36363          
1 67890U 26035M   26062.50001156 -.01003857  33588-3 -18219-2 0  9999
2 67890  97.2772 354.3568 0001221 107.7052 246.2989 16.01522729  2768
STARLINK-36816          
1 67891U 26035N   26062.50001156 -.01086416  39572-3 -18057-2 0  9991
2 67891  97.2749 354.3770 0001061  96.3622 309.4489 16.03046695  2656
STARLINK-36813          
1 67892U 26035P   26062.50001156 -.01086534  39278-3 -18765-2 0  9992
2 67892  97.2750 354.3678 0001268 114.7300 269.1989 16.02390865  2762
STARLINK-36803          
1 67893U 26035Q   26062.50001156 -.01065233  37586-3 -19094-2 0  9992
2 67893  97.2768 354.3593 0001039  83.0724 277.7105 16.01747406  2763
STARLINK-36846          
1 67894U 26035R   26062.50001156 -.01084219  38937-3 -19180-2 0  9995
2 67894  97.2765 354.3628 0001186 107.2446 261.9629 16.01977433  2764
STARLINK-36866          
1 67895U 26035S   26062.50001156 -.01083832  38957-3 -19061-2 0  9996
2 67895  97.2764 354.3643 0001041  95.0496 277.8137 16.02078788  2766
STARLINK-36877          
1 67896U 26035T   26062.50001156 -.01084406  38902-3 -19303-2 0  9994
2 67896  97.2765 354.3609 0001061  74.6030 290.5690 16.01870115  2768
STARLINK-36870          
1 67897U 26035U   26062.50001156 -.01092620  39597-3 -19088-2 0  9993
2 67897  97.2760 354.3657 0001101  81.1922 295.8575 16.02194703  2768
