CCSDS_OMM_VERS = 2.0
CREATION_DATE  = 
ORIGINATOR     = 

OBJECT_NAME    = STARLINK-36390
OBJECT_ID      = 2026-035H
CENTER_NAME    = EARTH
REF_FRAME      = TEME
TIME_SYSTEM    = UTC
MEAN_ELEMENT_THEORY = SGP/SGP4

EPOCH          = 2026-03-03T12:00:00.998784
MEAN_MOTION    = 16.01138097
ECCENTRICITY   = .0001151
INCLINATION    = 97.2777
RA_OF_ASC_NODE = 354.3521
ARG_OF_PERICENTER = 104.1773
MEAN_ANOMALY   = 239.0553

EPHEMERIS_TYPE = 0
CLASSIFICATION_TYPE = U
NORAD_CAT_ID   = 67886
ELEMENT_SET_NO = 999
REV_AT_EPOCH   = 281
BSTAR          = -.16846E-2
MEAN_MOTION_DOT = -.908581E-2
MEAN_MOTION_DDOT = .27796E-3

CCSDS_OMM_VERS = 2.0
CREATION_DATE  = 
ORIGINATOR     = 

OBJECT_NAME    = STARLINK-36368
OBJECT_ID      = 2026-035J
CENTER_NAME    = EARTH
REF_FRAME      = TEME
TIME_SYSTEM    = UTC
MEAN_ELEMENT_THEORY = SGP/SGP4

EPOCH          = 2026-03-03T12:00:00.998784
MEAN_MOTION    = 16.01254042
ECCENTRICITY   = .0001271
INCLINATION    = 97.2774
RA_OF_ASC_NODE = 354.3534
ARG_OF_PERICENTER = 117.0223
MEAN_ANOMALY   = 229.7449

EPHEMERIS_TYPE = 0
CLASSIFICATION_TYPE = U
NORAD_CAT_ID   = 67887
ELEMENT_SET_NO = 999
REV_AT_EPOCH   = 276
BSTAR          = -.16962E-2
MEAN_MOTION_DOT = -.920916E-2
MEAN_MOTION_DDOT = .28538E-3

CCSDS_OMM_VERS = 2.0
CREATION_DATE  = 
ORIGINATOR     = 

OBJECT_NAME    = STARLINK-36801
OBJECT_ID      = 2026-035K
CENTER_NAME    = EARTH
REF_FRAME      = TEME
TIME_SYSTEM    = UTC
MEAN_ELEMENT_THEORY = SGP/SGP4

EPOCH          = 2026-03-03T12:00:00.998784
MEAN_MOTION    = 16.01393071
ECCENTRICITY   = .0001129
INCLINATION    = 97.2773
RA_OF_ASC_NODE = 354.3549
ARG_OF_PERICENTER = 77.9704
MEAN_ANOMALY   = 272.1757

EPHEMERIS_TYPE = 0
CLASSIFICATION_TYPE = U
NORAD_CAT_ID   = 67888
ELEMENT_SET_NO = 999
REV_AT_EPOCH   = 276
BSTAR          = -.17712E-2
MEAN_MOTION_DOT = -.96892E-2
MEAN_MOTION_DDOT = .31408E-3

CCSDS_OMM_VERS = 2.0
CREATION_DATE  = 
ORIGINATOR     = 

OBJECT_NAME    = STARLINK-36372
OBJECT_ID      = 2026-035L
CENTER_NAME    = EARTH
REF_FRAME      = TEME
TIME_SYSTEM    = UTC
MEAN_ELEMENT_THEORY = SGP/SGP4

EPOCH          = 2026-03-03T12:00:00.998784
MEAN_MOTION    = 16.01623184
ECCENTRICITY   = .0001138
INCLINATION    = 97.2768
RA_OF_ASC_NODE = 354.3576
ARG_OF_PERICENTER = 80.5202
MEAN_ANOMALY   = 276.1261

EPHEMERIS_TYPE = 0
CLASSIFICATION_TYPE = U
NORAD_CAT_ID   = 67889
ELEMENT_SET_NO = 999
REV_AT_EPOCH   = 276
BSTAR          = -.18654E-2
MEAN_MOTION_DOT = -.103352E-1
MEAN_MOTION_DDOT = .3549E-3

CCSDS_OMM_VERS = 2.0
CREATION_DATE  = 
ORIGINATOR     = 

OBJECT_NAME    = STARLINK-36363
OBJECT_ID      = 2026-035M
CENTER_NAME    = EARTH
REF_FRAME      = TEME
TIME_SYSTEM    = UTC
MEAN_ELEMENT_THEORY = SGP/SGP4

EPOCH          = 2026-03-03T12:00:00.998784
MEAN_MOTION    = 16.01522729
ECCENTRICITY   = .0001221
INCLINATION    = 97.2772
RA_OF_ASC_NODE = 354.3568
ARG_OF_PERICENTER = 107.7052
MEAN_ANOMALY   = 246.2989

EPHEMERIS_TYPE = 0
CLASSIFICATION_TYPE = U
NORAD_CAT_ID   = 67890
ELEMENT_SET_NO = 999
REV_AT_EPOCH   = 276
BSTAR          = -.18219E-2
MEAN_MOTION_DOT = -.1003857E-1
MEAN_MOTION_DDOT = .33588E-3

CCSDS_OMM_VERS = 2.0
CREATION_DATE  = 
ORIGINATOR     = 

OBJECT_NAME    = STARLINK-36816
OBJECT_ID      = 2026-035N
CENTER_NAME    = EARTH
REF_FRAME      = TEME
TIME_SYSTEM    = UTC
MEAN_ELEMENT_THEORY = SGP/SGP4

EPOCH          = 2026-03-03T12:00:00.998784
MEAN_MOTION    = 16.03046695
ECCENTRICITY   = .0001061
INCLINATION    = 97.2749
RA_OF_ASC_NODE = 354.3770
ARG_OF_PERICENTER = 96.3622
MEAN_ANOMALY   = 309.4489

EPHEMERIS_TYPE = 0
CLASSIFICATION_TYPE = U
NORAD_CAT_ID   = 67891
ELEMENT_SET_NO = 999
REV_AT_EPOCH   = 265
BSTAR          = -.18057E-2
MEAN_MOTION_DOT = -.1086416E-1
MEAN_MOTION_DDOT = .39572E-3

CCSDS_OMM_VERS = 2.0
CREATION_DATE  = 
ORIGINATOR     = 

OBJECT_NAME    = STARLINK-36813
OBJECT_ID      = 2026-035P
CENTER_NAME    = EARTH
REF_FRAME      = TEME
TIME_SYSTEM    = UTC
MEAN_ELEMENT_THEORY = SGP/SGP4

EPOCH          = 2026-03-03T12:00:00.998784
MEAN_MOTION    = 16.02390865
ECCENTRICITY   = .0001268
INCLINATION    = 97.2750
RA_OF_ASC_NODE = 354.3678
ARG_OF_PERICENTER = 114.7300
MEAN_ANOMALY   = 269.1989

EPHEMERIS_TYPE = 0
CLASSIFICATION_TYPE = U
NORAD_CAT_ID   = 67892
ELEMENT_SET_NO = 999
REV_AT_EPOCH   = 276
BSTAR          = -.18765E-2
MEAN_MOTION_DOT = -.1086534E-1
MEAN_MOTION_DDOT = .39278E-3

CCSDS_OMM_VERS = 2.0
CREATION_DATE  = 
ORIGINATOR     = 

OBJECT_NAME    = STARLINK-36803
OBJECT_ID      = 2026-035Q
CENTER_NAME    = EARTH
REF_FRAME      = TEME
TIME_SYSTEM    = UTC
MEAN_ELEMENT_THEORY = SGP/SGP4

EPOCH          = 2026-03-03T12:00:00.998784
MEAN_MOTION    = 16.01747406
ECCENTRICITY   = .0001039
INCLINATION    = 97.2768
RA_OF_ASC_NODE = 354.3593
ARG_OF_PERICENTER = 83.0724
MEAN_ANOMALY   = 277.7105

EPHEMERIS_TYPE = 0
CLASSIFICATION_TYPE = U
NORAD_CAT_ID   = 67893
ELEMENT_SET_NO = 999
REV_AT_EPOCH   = 276
BSTAR          = -.19094E-2
MEAN_MOTION_DOT = -.1065233E-1
MEAN_MOTION_DDOT = .37586E-3

CCSDS_OMM_VERS = 2.0
CREATION_DATE  = 
ORIGINATOR     = 

OBJECT_NAME    = STARLINK-36846
OBJECT_ID      = 2026-035R
CENTER_NAME    = EARTH
REF_FRAME      = TEME
TIME_SYSTEM    = UTC
MEAN_ELEMENT_THEORY = SGP/SGP4

EPOCH          = 2026-03-03T12:00:00.998784
MEAN_MOTION    = 16.01977433
ECCENTRICITY   = .0001186
INCLINATION    = 97.2765
RA_OF_ASC_NODE = 354.3628
ARG_OF_PERICENTER = 107.2446
MEAN_ANOMALY   = 261.9629

EPHEMERIS_TYPE = 0
CLASSIFICATION_TYPE = U
NORAD_CAT_ID   = 67894
ELEMENT_SET_NO = 999
REV_AT_EPOCH   = 276
BSTAR          = -.1918E-2
MEAN_MOTION_DOT = -.1084219E-1
MEAN_MOTION_DDOT = .38937E-3

CCSDS_OMM_VERS = 2.0
CREATION_DATE  = 
ORIGINATOR     = 

OBJECT_NAME    = STARLINK-36866
OBJECT_ID      = 2026-035S
CENTER_NAME    = EARTH
REF_FRAME      = TEME
TIME_SYSTEM    = UTC
MEAN_ELEMENT_THEORY = SGP/SGP4

EPOCH          = 2026-03-03T12:00:00.998784
MEAN_MOTION    = 16.02078788
ECCENTRICITY   = .0001041
INCLINATION    = 97.2764
RA_OF_ASC_NODE = 354.3643
ARG_OF_PERICENTER = 95.0496
MEAN_ANOMALY   = 277.8137

EPHEMERIS_TYPE = 0
CLASSIFICATION_TYPE = U
NORAD_CAT_ID   = 67895
ELEMENT_SET_NO = 999
REV_AT_EPOCH   = 276
BSTAR          = -.19061E-2
MEAN_MOTION_DOT = -.1083832E-1
MEAN_MOTION_DDOT = .38957E-3

CCSDS_OMM_VERS = 2.0
CREATION_DATE  = 
ORIGINATOR     = 

OBJECT_NAME    = STARLINK-36877
OBJECT_ID      = 2026-035T
CENTER_NAME    = EARTH
REF_FRAME      = TEME
TIME_SYSTEM    = UTC
MEAN_ELEMENT_THEORY = SGP/SGP4

EPOCH          = 2026-03-03T12:00:00.998784
MEAN_MOTION    = 16.01870115
ECCENTRICITY   = .0001061
INCLINATION    = 97.2765
RA_OF_ASC_NODE = 354.3609
ARG_OF_PERICENTER = 74.6030
MEAN_ANOMALY   = 290.5690

EPHEMERIS_TYPE = 0
CLASSIFICATION_TYPE = U
NORAD_CAT_ID   = 67896
ELEMENT_SET_NO = 999
REV_AT_EPOCH   = 276
BSTAR          = -.19303E-2
MEAN_MOTION_DOT = -.1084406E-1
MEAN_MOTION_DDOT = .38902E-3

CCSDS_OMM_VERS = 2.0
CREATION_DATE  = 
ORIGINATOR     = 

OBJECT_NAME    = STARLINK-36870
OBJECT_ID      = 2026-035U
CENTER_NAME    = EARTH
REF_FRAME      = TEME
TIME_SYSTEM    = UTC
MEAN_ELEMENT_THEORY = SGP/SGP4

EPOCH          = 2026-03-03T12:00:00.998784
MEAN_MOTION    = 16.02194703
ECCENTRICITY   = .0001101
INCLINATION    = 97.2760
RA_OF_ASC_NODE = 354.3657
ARG_OF_PERICENTER = 81.1922
MEAN_ANOMALY   = 295.8575

EPHEMERIS_TYPE = 0
CLASSIFICATION_TYPE = U
NORAD_CAT_ID   = 67897
ELEMENT_SET_NO = 999
REV_AT_EPOCH   = 276
BSTAR          = -.19088E-2
MEAN_MOTION_DOT = -.109262E-1
MEAN_MOTION_DDOT = .39597E-3

